{
"type": "FeatureCollection",
"name": "fields",
"crs": { "type": "name", "properties": { "name": "urn:ogc:def:crs:OGC:1.3:CRS84" } },
"features": [
{ "type": "Feature", "properties": { "field_id": 1, "Cad_number": "06087092142/06087092072", "Culture": "Corn", "Area_ha": 4.53, "type_irrag": "Canal irrigation" }, "geometry": { "type": "Polygon", "coordinates": [ [ [ 71.575526865930868, 43.003612004758018 ], [ 71.567917032272561, 43.008417373372573 ], [ 71.568326770335702, 43.008789831173011 ], [ 71.568325700191934, 43.008788707137001 ], [ 71.56832577363592, 43.008788660880271 ], [ 71.568327089597233, 43.008789830623662 ], [ 71.576034716134259, 43.003966687641046 ], [ 71.575970224268488, 43.003973136827625 ], [ 71.575969711234663, 43.003973136827675 ], [ 71.575949687238719, 43.003930865248329 ], [ 71.575847676433156, 43.003836576480289 ], [ 71.575846172675071, 43.003835523430027 ], [ 71.57574755761614, 43.003737911232982 ], [ 71.575539825922164, 43.003582112462517 ], [ 71.575526927549021, 43.003611642948421 ], [ 71.575526865930868, 43.003612004758018 ] ] ] } },
{ "type": "Feature", "properties": { "field_id": 2, "Cad_number": "06087092173-2", "Culture": "Corn", "Area_ha": 1.0, "type_irrag": "Canal irrigation" }, "geometry": { "type": "Polygon", "coordinates": [ [ [ 71.582590728523726, 43.008341532888338 ], [ 71.580657005180967, 43.009564467140173 ], [ 71.58096668628535, 43.009876463215704 ], [ 71.580998730483387, 43.009882155782819 ], [ 71.583054722345636, 43.008628699365531 ], [ 71.582590728523726, 43.008341532888338 ] ] ] } },
{ "type": "Feature", "properties": { "field_id": 3, "Cad_number": "06087092173-1", "Culture": "Corn", "Area_ha": 0.79, "type_irrag": "Canal irrigation" }, "geometry": { "type": "Polygon", "coordinates": [ [ [ 71.582239248162608, 43.008066979780835 ], [ 71.580523045814402, 43.009164427877494 ], [ 71.58054138694699, 43.009385224976818 ], [ 71.580683120790781, 43.00954155322588 ], [ 71.582578540377028, 43.008324536692712 ], [ 71.582239248162608, 43.008066979780835 ] ] ] } },
{ "type": "Feature", "properties": { "field_id": 4, "Cad_number": "06087080162", "Culture": "Beans", "Area_ha": 12.44, "type_irrag": "Drip irrigation" }, "geometry": { "type": "Polygon", "coordinates": [ [ [ 71.641683911302238, 43.026930200838052 ], [ 71.641291855904242, 43.024547284244846 ], [ 71.640805495428751, 43.02455480457354 ], [ 71.640695544348077, 43.023968995302397 ], [ 71.636119092233969, 43.024087761959464 ], [ 71.636590024670042, 43.026939299098878 ], [ 71.639447477227833, 43.026614113730368 ], [ 71.641683911302238, 43.026930200838052 ] ] ] } },
{ "type": "Feature", "properties": { "field_id": 5, "Cad_number": "06087095749", "Culture": "Beans", "Area_ha": 30.42, "type_irrag": "Drip irrigation" }, "geometry": { "type": "Polygon", "coordinates": [ [ [ 71.587302756912933, 43.00938959060678 ], [ 71.592677569642021, 43.001443236656499 ], [ 71.591313529460862, 43.000222533059123 ], [ 71.590124973443181, 42.999292907295228 ], [ 71.590002532646679, 42.999240897785974 ], [ 71.584537615127616, 43.007298942382086 ], [ 71.58482502496642, 43.007670789406667 ], [ 71.585099169069579, 43.007894836069411 ], [ 71.585392898621521, 43.008067813761215 ], [ 71.585708464726679, 43.008187623839987 ], [ 71.585914838679798, 43.008184607849849 ], [ 71.586068386408968, 43.008233115233189 ], [ 71.586214709899224, 43.008400682912985 ], [ 71.586458567769441, 43.008567364925433 ], [ 71.58654888821647, 43.008768697333025 ], [ 71.586773917568379, 43.008958267783711 ], [ 71.586889424412007, 43.00914487713122 ], [ 71.587061537796089, 43.009264518729374 ], [ 71.587174435553379, 43.009344476246106 ], [ 71.587302756912933, 43.00938959060678 ] ] ] } },
{ "type": "Feature", "properties": { "field_id": 6, "Cad_number": "06087095298", "Culture": "Beat", "Area_ha": 32.62, "type_irrag": "Drip irrigation" }, "geometry": { "type": "Polygon", "coordinates": [ [ [ 71.580312535956409, 43.004975906898046 ], [ 71.580883334975596, 43.004343597455254 ], [ 71.58193190723135, 43.002718940294308 ], [ 71.583373158642999, 43.000551741709259 ], [ 71.585206611053906, 42.99783246622021 ], [ 71.58665701399714, 42.995579251343997 ], [ 71.587706714059266, 42.994297584926748 ], [ 71.585104516772162, 42.993231918142669 ], [ 71.577819801529884, 43.003431122294622 ], [ 71.580312535956409, 43.004975906898046 ] ] ] } },
{ "type": "Feature", "properties": { "field_id": 7, "Cad_number": "06087092228", "Culture": "Corn", "Area_ha": 9.36, "type_irrag": "Canal irrigation" }, "geometry": { "type": "Polygon", "coordinates": [ [ [ 71.559437062471972, 43.00263666684539 ], [ 71.568606480284117, 42.99692930374362 ], [ 71.568101315644341, 42.996238844461864 ], [ 71.561766372983655, 43.000170718880099 ], [ 71.559274159873212, 43.001709572252999 ], [ 71.558996523342202, 43.001870776385232 ], [ 71.557920168192439, 43.002536688994319 ], [ 71.558458960260197, 43.003239812700507 ], [ 71.559437062471972, 43.00263666684539 ] ] ] } },
{ "type": "Feature", "properties": { "field_id": 8, "Cad_number": "06087095175", "Culture": "Alfalfa", "Area_ha": 5.54, "type_irrag": "Canal irrigation" }, "geometry": { "type": "Polygon", "coordinates": [ [ [ 71.553411982777604, 43.021262035171226 ], [ 71.55335889526792, 43.021295067398803 ], [ 71.553369757055847, 43.021313170378662 ], [ 71.55332872363482, 43.021339721415806 ], [ 71.553322689308189, 43.021362651856975 ], [ 71.553376998247785, 43.021410926469947 ], [ 71.553377269079661, 43.021410798181201 ], [ 71.553399928688947, 43.021400064682027 ], [ 71.553486822992312, 43.021457994217599 ], [ 71.553572510430342, 43.021514716887857 ], [ 71.55360472739568, 43.021543601065275 ], [ 71.553607509524753, 43.021546095386277 ], [ 71.55364854294578, 43.021560577770146 ], [ 71.553657414504812, 43.021557715978439 ], [ 71.553685955770831, 43.021548509116919 ], [ 71.55378371186211, 43.021595576864584 ], [ 71.553792435867592, 43.021635561909122 ], [ 71.553798194245999, 43.021661954457414 ], [ 71.553816297225865, 43.021722297723628 ], [ 71.553852503185595, 43.021757296818052 ], [ 71.553865778704164, 43.021759710548693 ], [ 71.553892591279535, 43.021745721379183 ], [ 71.553893371615004, 43.021746041635112 ], [ 71.562617966036683, 43.017423443438133 ], [ 71.562584823845867, 43.017349702108653 ], [ 71.562569691423704, 43.017316032424233 ], [ 71.56252045149165, 43.017262027414269 ], [ 71.562457452948536, 43.017192932161173 ], [ 71.562398316547643, 43.017107244723135 ], [ 71.562323490897526, 43.017021557285091 ], [ 71.56225903488145, 43.016938003191704 ], [ 71.562258320170073, 43.016938283577723 ], [ 71.553413204207516, 43.021262482035041 ], [ 71.553411982777604, 43.021262035171226 ] ] ] } },
{ "type": "Feature", "properties": { "field_id": 9, "Cad_number": "06087092251", "Culture": "Alfalfa", "Area_ha": 11.54, "type_irrag": "Canal irrigation" }, "geometry": { "type": "Polygon", "coordinates": [ [ [ 71.682914767110589, 43.045697685176997 ], [ 71.682924335899543, 43.045689436200959 ], [ 71.684507743205145, 43.043512251155754 ], [ 71.684511845747224, 43.043508376545482 ], [ 71.684380587175127, 43.04338368019706 ], [ 71.684309642054771, 43.04332102026833 ], [ 71.684218605294802, 43.043244537486764 ], [ 71.684146415803525, 43.043153318800037 ], [ 71.684054133581938, 43.04304827635351 ], [ 71.683963097550304, 43.04297179334575 ], [ 71.683841302102735, 43.042860296616645 ], [ 71.683681815566999, 43.042778272993736 ], [ 71.683571934619764, 43.042716526268698 ], [ 71.683442586550456, 43.042655237118716 ], [ 71.683343685305857, 43.042621821306021 ], [ 71.683205536858097, 43.042582179494524 ], [ 71.683088102603932, 43.042570640305293 ], [ 71.683037562391505, 43.042528942873126 ], [ 71.68301591432926, 43.042479419957779 ], [ 71.68304231556138, 43.04241447539686 ], [ 71.683128056397493, 43.042369580679171 ], [ 71.683174236130526, 43.042311319696019 ], [ 71.683155902062339, 43.042274902301713 ], [ 71.681555390483695, 43.042826370522192 ], [ 71.680100072502654, 43.043307185679275 ], [ 71.678620082315433, 43.043781412567192 ], [ 71.677658436952299, 43.044075526386145 ], [ 71.676895165637703, 43.044344720208791 ], [ 71.677856746009525, 43.04461585251412 ], [ 71.679035788593268, 43.044838390845804 ], [ 71.680459451788352, 43.045083772525579 ], [ 71.682914767110589, 43.045697685176997 ] ] ] } },
{ "type": "Feature", "properties": { "field_id": 10, "Cad_number": "06087092291", "Culture": "Alfalfa", "Area_ha": 8.57, "type_irrag": "Canal irrigation" }, "geometry": { "type": "Polygon", "coordinates": [ [ [ 71.674562301112843, 43.043763845746291 ], [ 71.674611447545047, 43.043830863601393 ], [ 71.674930209094001, 43.043901699694203 ], [ 71.675164403955833, 43.043878375553184 ], [ 71.675358784684164, 43.043866680838903 ], [ 71.675458924710625, 43.043928663362436 ], [ 71.675656721199033, 43.04399550780424 ], [ 71.676895165637703, 43.044344720208791 ], [ 71.677658436952299, 43.044075526386145 ], [ 71.678620082315433, 43.043781412567192 ], [ 71.680100072502654, 43.043307185679275 ], [ 71.681555390483695, 43.042826370522192 ], [ 71.683155902062339, 43.042274902301713 ], [ 71.683078221815308, 43.042120597699054 ], [ 71.682700308965153, 43.041722072869064 ], [ 71.682527046620905, 43.041547456798568 ], [ 71.682494730784995, 43.041476742871247 ], [ 71.682462104957281, 43.041398888561879 ], [ 71.682445210910416, 43.041234898933936 ], [ 71.682423875116498, 43.041192516213144 ], [ 71.682394362242292, 43.041186061696258 ], [ 71.674562301112843, 43.043763845746291 ] ] ] } },
{ "type": "Feature", "properties": { "field_id": 11, "Cad_number": "06087092176", "Culture": "Corn", "Area_ha": 3.19, "type_irrag": "Canal irrigation" }, "geometry": { "type": "Polygon", "coordinates": [ [ [ 71.573258566093955, 43.007689188839741 ], [ 71.573258284740916, 43.007689791737711 ], [ 71.573473429984645, 43.007863091958178 ], [ 71.573900487951661, 43.008207084387386 ], [ 71.574601073272476, 43.008788190041081 ], [ 71.574844105777174, 43.008976913606205 ], [ 71.575274258310444, 43.008705591519195 ], [ 71.576270823189375, 43.008076985277839 ], [ 71.576339856378326, 43.008033440222214 ], [ 71.57634167478659, 43.008031938057201 ], [ 71.575495855151445, 43.007300628218729 ], [ 71.574787860703779, 43.006688465639371 ], [ 71.574787081390582, 43.006689149525627 ], [ 71.573258566093955, 43.007689188839741 ] ] ] } },
{ "type": "Feature", "properties": { "field_id": 12, "Cad_number": "06087092233", "Culture": "Corn", "Area_ha": 2.55, "type_irrag": "Canal irrigation" }, "geometry": { "type": "Polygon", "coordinates": [ [ [ 71.575893148287946, 43.009821566287876 ], [ 71.576090495940889, 43.010004710288051 ], [ 71.576159739838886, 43.010054946057174 ], [ 71.576163683991226, 43.010050325783446 ], [ 71.577639637819004, 43.00913956978777 ], [ 71.577527316189034, 43.009062051627971 ], [ 71.57747054713829, 43.00903199278644 ], [ 71.577326846619371, 43.008895033734404 ], [ 71.57718540799344, 43.008786346069094 ], [ 71.577080648487879, 43.008674727474748 ], [ 71.57677161270513, 43.008414820232744 ], [ 71.576603722765299, 43.00826235299369 ], [ 71.576486317604079, 43.008156359234718 ], [ 71.576389090092604, 43.008067063395266 ], [ 71.576363256040523, 43.008054780672182 ], [ 71.576326077538042, 43.008069426400908 ], [ 71.574881330562917, 43.008984356873214 ], [ 71.574869525618482, 43.008991833372939 ], [ 71.57500464531833, 43.009148890307507 ], [ 71.575188475456642, 43.009306280296165 ], [ 71.575249899554109, 43.009377799919697 ], [ 71.575561677344538, 43.00961378686366 ], [ 71.575893148287946, 43.009821566287876 ] ] ] } },
{ "type": "Feature", "properties": { "field_id": 13, "Cad_number": "06087092243", "Culture": "Corn", "Area_ha": 3.07, "type_irrag": "Canal irrigation" }, "geometry": { "type": "Polygon", "coordinates": [ [ [ 71.57674935431892, 43.010496535641579 ], [ 71.577004139005851, 43.010712441983138 ], [ 71.577039667524403, 43.010732420184787 ], [ 71.577048519740828, 43.010737995635516 ], [ 71.577188653822617, 43.010862559340339 ], [ 71.577247578333328, 43.010914936507419 ], [ 71.577288771778328, 43.01095155270697 ], [ 71.577344765599776, 43.010916402226279 ], [ 71.580348009983283, 43.009030999128385 ], [ 71.580369193048298, 43.009017699960488 ], [ 71.582189967845252, 43.007874544279446 ], [ 71.582190068719413, 43.007874442132362 ], [ 71.582188710995922, 43.007871811543104 ], [ 71.582186105802208, 43.007869887257094 ], [ 71.581737034821273, 43.007538185170162 ], [ 71.581736447644161, 43.007538462140445 ], [ 71.581419419209254, 43.007736237195481 ], [ 71.580747798656233, 43.008134502752526 ], [ 71.580186606280378, 43.008475743922986 ], [ 71.579723169995816, 43.00875090921695 ], [ 71.57944800470186, 43.008907499992794 ], [ 71.579083229657556, 43.009132882092139 ], [ 71.578732936997156, 43.009343781807587 ], [ 71.578337386887057, 43.00957731024787 ], [ 71.578168124025325, 43.009675066339121 ], [ 71.577865804261549, 43.009846139498862 ], [ 71.577277457415903, 43.010187380669336 ], [ 71.57674935431892, 43.010496535641579 ] ] ] } },
{ "type": "Feature", "properties": { "field_id": 14, "Cad_number": "06087092285", "Culture": "Alfalfa", "Area_ha": 5.52, "type_irrag": "Canal irrigation" }, "geometry": { "type": "Polygon", "coordinates": [ [ [ 71.567373979999942, 42.995105991700029 ], [ 71.567373862746422, 42.995106061883895 ], [ 71.567373588252877, 42.995106226186202 ], [ 71.557006641696674, 43.001310444195795 ], [ 71.557006641700056, 43.001310444200072 ], [ 71.557346231699967, 43.001802169200062 ], [ 71.567115443147543, 42.995746903198508 ], [ 71.56764797108157, 42.995428143894863 ], [ 71.567694999423622, 42.995414554527066 ], [ 71.56769504, 42.995414533299972 ], [ 71.567630915440319, 42.995352909340156 ], [ 71.567373979999985, 42.995105991699887 ], [ 71.567373979999942, 42.995105991700029 ] ] ] } },
{ "type": "Feature", "properties": { "field_id": 15, "Cad_number": "06087092058", "Culture": "Corn", "Area_ha": 3.6, "type_irrag": "Canal irrigation" }, "geometry": { "type": "Polygon", "coordinates": [ [ [ 71.566515258839047, 43.006913711434542 ], [ 71.566656666038014, 43.007090153074607 ], [ 71.566801662127531, 43.007271071494436 ], [ 71.566801644827351, 43.007271121435153 ], [ 71.574245906087199, 43.002641122097565 ], [ 71.574197774775342, 43.002607338200001 ], [ 71.573937407743685, 43.002424582695099 ], [ 71.573847903802829, 43.002375433212876 ], [ 71.573823089615345, 43.002361806920447 ], [ 71.57382245970679, 43.0023624608585 ], [ 71.573764849268954, 43.002398347584553 ], [ 71.573667703854483, 43.002458861302763 ], [ 71.57045314336797, 43.004461160352861 ], [ 71.570270790457727, 43.004574738615446 ], [ 71.570107844124692, 43.004676228928226 ], [ 71.569642360215695, 43.004966150199891 ], [ 71.569478691049781, 43.005068088568926 ], [ 71.568861714242573, 43.005452356327375 ], [ 71.567452558448039, 43.006329981994277 ], [ 71.566515258839047, 43.006913711434542 ] ] ] } },
{ "type": "Feature", "properties": { "field_id": 16, "Cad_number": "06087092280", "Culture": "Beat", "Area_ha": 9.03, "type_irrag": "Canal irrigation" }, "geometry": { "type": "Polygon", "coordinates": [ [ [ 71.565289965864906, 43.012696151962444 ], [ 71.565289965864892, 43.012696151962452 ], [ 71.565289965864892, 43.012696151962466 ], [ 71.565536166391055, 43.012884422953064 ], [ 71.565661680384792, 43.013050970367821 ], [ 71.565878916143177, 43.013287515971413 ], [ 71.566122702938713, 43.013524061574984 ], [ 71.566395454502029, 43.013772675831817 ], [ 71.566615103991069, 43.013989911590222 ], [ 71.566839580941419, 43.014180596311476 ], [ 71.567187158154837, 43.014436451760233 ], [ 71.567397152721284, 43.01458127559917 ], [ 71.567590251173186, 43.014687479747721 ], [ 71.567776108433151, 43.014774374051079 ], [ 71.567981275538301, 43.014646446326694 ], [ 71.568065756111011, 43.014701962131618 ], [ 71.568067449539569, 43.014703306917255 ], [ 71.570428798416202, 43.013212690321303 ], [ 71.570430023846768, 43.01321161342937 ], [ 71.570199494004555, 43.013002695754849 ], [ 71.570105358509252, 43.012920628912809 ], [ 71.569989499438108, 43.012816838494899 ], [ 71.569711920413511, 43.012614085120411 ], [ 71.569419859005009, 43.012379953247454 ], [ 71.569094005367404, 43.012102374222849 ], [ 71.568804357689558, 43.011839277582119 ], [ 71.568562984624677, 43.011636524207617 ], [ 71.568360231250168, 43.011441012025081 ], [ 71.568128513107879, 43.011209293882779 ], [ 71.567983689268956, 43.011062056313214 ], [ 71.567973285002267, 43.011056203916048 ], [ 71.567945974180105, 43.011040841576062 ], [ 71.56794506957857, 43.011037919006718 ], [ 71.565289965864892, 43.012696151962444 ], [ 71.565289965864906, 43.012696151962444 ] ] ] } },
{ "type": "Feature", "properties": { "field_id": 17, "Cad_number": "06087092254", "Culture": "Beat", "Area_ha": 10.38, "type_irrag": "Canal irrigation" }, "geometry": { "type": "Polygon", "coordinates": [ [ [ 71.568212007926192, 43.010874054937837 ], [ 71.568212390247936, 43.010874388755276 ], [ 71.568282991869424, 43.010944085227749 ], [ 71.568506563670752, 43.011169467327086 ], [ 71.568855951182158, 43.011472692239842 ], [ 71.569105772304326, 43.011680876508279 ], [ 71.569551105609037, 43.012029358870713 ], [ 71.569850709925802, 43.01227555939689 ], [ 71.57038203238487, 43.012700074274733 ], [ 71.57096220613569, 43.01322503648327 ], [ 71.570963138038564, 43.013224155541877 ], [ 71.573713332992455, 43.011430510807614 ], [ 71.573712980680227, 43.011430150237153 ], [ 71.573394368234574, 43.011120589281454 ], [ 71.573001533571485, 43.010777537812977 ], [ 71.572606888610395, 43.010463451112287 ], [ 71.572423143364759, 43.01030686033647 ], [ 71.571982335805032, 43.009953852229074 ], [ 71.571712601405025, 43.009705841404916 ], [ 71.571455539090934, 43.009470502666652 ], [ 71.571271793845298, 43.009301239804884 ], [ 71.571041488231046, 43.009067335672526 ], [ 71.57104098085199, 43.009067711364636 ], [ 71.568212007926192, 43.010874054937837 ] ] ] } },
{ "type": "Feature", "properties": { "field_id": 18, "Cad_number": "06087092286", "Culture": "Corn", "Area_ha": 10.12, "type_irrag": "Canal irrigation" }, "geometry": { "type": "Polygon", "coordinates": [ [ [ 71.571276613187138, 43.008928134524446 ], [ 71.573959846089252, 43.011283914585057 ], [ 71.574038253038665, 43.011344056407076 ], [ 71.574390126864785, 43.011606177209721 ], [ 71.575154696028449, 43.012193577290653 ], [ 71.575195658797085, 43.012202583312316 ], [ 71.575278587137689, 43.012179867317208 ], [ 71.575928688693082, 43.011744283717995 ], [ 71.576824862345362, 43.011176074337655 ], [ 71.576919603596139, 43.011112386503328 ], [ 71.577014799905328, 43.011059609808754 ], [ 71.577050735364963, 43.011013131494884 ], [ 71.577050509374047, 43.010975409833037 ], [ 71.576971170625811, 43.010889831916522 ], [ 71.576384726439088, 43.010388775892523 ], [ 71.576029402070304, 43.010108868717232 ], [ 71.575962578180921, 43.010063711846684 ], [ 71.575875647621558, 43.010022979606923 ], [ 71.575820738959564, 43.009971597882689 ], [ 71.575794669352334, 43.009930488155725 ], [ 71.575390578263196, 43.00958416644734 ], [ 71.575151901362929, 43.009376089389754 ], [ 71.57474896238277, 43.009024776177931 ], [ 71.574361241894621, 43.008713823522811 ], [ 71.574121029478192, 43.008533577307617 ], [ 71.573607478264435, 43.008092418719251 ], [ 71.573389127946101, 43.007884873720066 ], [ 71.573255598137109, 43.007764771071159 ], [ 71.57319586679408, 43.007727395797687 ], [ 71.573193905692875, 43.007727194257306 ], [ 71.571276613187138, 43.008928134524446 ] ] ] } },
{ "type": "Feature", "properties": { "field_id": 19, "Cad_number": "06087092279", "Culture": "Corn", "Area_ha": 3.69, "type_irrag": "Canal irrigation" }, "geometry": { "type": "Polygon", "coordinates": [ [ [ 71.576173359018043, 43.010085768014534 ], [ 71.57668369373566, 43.010481605909582 ], [ 71.578217480427341, 43.009588982954334 ], [ 71.57821769304509, 43.00958916725471 ], [ 71.581666246774077, 43.007537761487562 ], [ 71.581666666314106, 43.007537726706815 ], [ 71.581714186636262, 43.007507177928289 ], [ 71.581066552531539, 43.007006856822244 ], [ 71.581010239659179, 43.007037557068607 ], [ 71.581008227383094, 43.00703760247643 ], [ 71.580785503769107, 43.007161637300122 ], [ 71.577989131720457, 43.008934610266408 ], [ 71.577414706495489, 43.009298790155455 ], [ 71.576173359018043, 43.010085768014534 ] ] ] } },
{ "type": "Feature", "properties": { "field_id": 20, "Cad_number": "19325095529", "Culture": "Cotton", "Area_ha": 5.22, "type_irrag": "Canal irrigation" }, "geometry": { "type": "Polygon", "coordinates": [ [ [ 68.219664203161599, 40.954885269261808 ], [ 68.219556164324786, 40.956658974771351 ], [ 68.219602040649278, 40.956687878974883 ], [ 68.219717356736695, 40.956720120636234 ], [ 68.219815393954192, 40.956724597572197 ], [ 68.219952491103172, 40.956722665125589 ], [ 68.220079528541802, 40.956720664465045 ], [ 68.220324745075672, 40.956721369661018 ], [ 68.220457980101955, 40.956727037442739 ], [ 68.220605159382075, 40.956723265652357 ], [ 68.220790253123269, 40.95670354266381 ], [ 68.220932469736823, 40.956694016703793 ], [ 68.221126141434695, 40.956693418508983 ], [ 68.221410753718985, 40.956659112897498 ], [ 68.221446108276353, 40.956646957857458 ], [ 68.221472294183059, 40.956631084806716 ], [ 68.221481064160955, 40.95651351131589 ], [ 68.221537266791728, 40.954940832972412 ], [ 68.221588510174143, 40.954070446044845 ], [ 68.221537498405212, 40.953999206031263 ], [ 68.221481432838985, 40.95395473414942 ], [ 68.221373345166455, 40.953923019747734 ], [ 68.221061404743267, 40.953849409989822 ], [ 68.220829414588252, 40.953794215398723 ], [ 68.220567673541282, 40.953729285527395 ], [ 68.220323264396427, 40.953660897137254 ], [ 68.220158720775629, 40.953618074398285 ], [ 68.219937888779143, 40.953549844663812 ], [ 68.219790536763441, 40.953515479692783 ], [ 68.219747650475711, 40.953553324225659 ], [ 68.219729044608528, 40.953588964506508 ], [ 68.219664203161599, 40.954885269261808 ] ] ] } },
{ "type": "Feature", "properties": { "field_id": 21, "Cad_number": "19325095529", "Culture": "Cotton", "Area_ha": 6.59, "type_irrag": "Canal irrigation" }, "geometry": { "type": "Polygon", "coordinates": [ [ [ 68.21725436293184, 40.956752302619932 ], [ 68.217260562435158, 40.956767663357255 ], [ 68.217332204996723, 40.956809936327552 ], [ 68.217375469279489, 40.956820240389753 ], [ 68.21761878861021, 40.956821891832426 ], [ 68.218010427531311, 40.956803098074275 ], [ 68.218174847163226, 40.956777042165356 ], [ 68.218294637443904, 40.956776424379719 ], [ 68.218380779821644, 40.9567498374129 ], [ 68.218463586867742, 40.956766129349809 ], [ 68.218613530961377, 40.956767860712965 ], [ 68.218693668973671, 40.956770548895761 ], [ 68.21885784384115, 40.95676522611582 ], [ 68.218865557193581, 40.956750977850092 ], [ 68.218892065062491, 40.956742577129283 ], [ 68.218908973390782, 40.956748411893059 ], [ 68.218910724736901, 40.956759864179105 ], [ 68.218963437074706, 40.956768801602308 ], [ 68.219081602362976, 40.956746006174846 ], [ 68.21917337770148, 40.956721601847875 ], [ 68.219198016176492, 40.95671175834326 ], [ 68.2192425187053, 40.95668811222852 ], [ 68.219262884434073, 40.956393640935573 ], [ 68.219420971147741, 40.954182896286596 ], [ 68.219504163044718, 40.953525635371903 ], [ 68.219507950069755, 40.953501738394223 ], [ 68.219499817429252, 40.953473108260056 ], [ 68.219491223691733, 40.953442854853733 ], [ 68.219329380886379, 40.953402281502548 ], [ 68.219212971987503, 40.953369368483507 ], [ 68.218913863858361, 40.953284799076556 ], [ 68.218665703751867, 40.953227045494437 ], [ 68.218391244674976, 40.953147962303198 ], [ 68.218054663404374, 40.953058446777405 ], [ 68.217768821737835, 40.952985005119835 ], [ 68.217620226005565, 40.952949675569457 ], [ 68.217578862652303, 40.952952171599073 ], [ 68.21725436293184, 40.956752302619932 ] ] ] } },
{ "type": "Feature", "properties": { "field_id": 22, "Cad_number": "19325095482", "Culture": "Cotton", "Area_ha": 5.94, "type_irrag": "Canal irrigation" }, "geometry": { "type": "Polygon", "coordinates": [ [ [ 68.215444754181007, 40.956595643393975 ], [ 68.215481004274494, 40.956646841435045 ], [ 68.215519767813689, 40.956718607822914 ], [ 68.215516493414498, 40.956835849842854 ], [ 68.215525416517536, 40.956878812130753 ], [ 68.215532842802489, 40.956888873027658 ], [ 68.215768600563734, 40.956891906978008 ], [ 68.215828755815139, 40.956909476775699 ], [ 68.215876096907166, 40.95689406818525 ], [ 68.215977731631924, 40.956913350060702 ], [ 68.216032566729695, 40.956902282524688 ], [ 68.216151532532834, 40.956891650993242 ], [ 68.216425301778543, 40.956870631135686 ], [ 68.216500546772835, 40.956888303138818 ], [ 68.216602570517168, 40.956874695900801 ], [ 68.216681790812629, 40.956875234167818 ], [ 68.216746259587183, 40.956847071115028 ], [ 68.216821656754988, 40.956851873470207 ], [ 68.216910527703462, 40.956833886454106 ], [ 68.216928963784341, 40.95682586069821 ], [ 68.216953481570457, 40.95654481870163 ], [ 68.217189172721476, 40.954158231222856 ], [ 68.21729428770098, 40.953243710809055 ], [ 68.217316132223942, 40.952991216238722 ], [ 68.217316807752809, 40.95293401880069 ], [ 68.217317095447157, 40.95290965949571 ], [ 68.217292851454644, 40.952892646759452 ], [ 68.21717093162097, 40.952834616868572 ], [ 68.21680619763211, 40.952733466116378 ], [ 68.216590025335861, 40.952670505155318 ], [ 68.216138702857691, 40.952554463367349 ], [ 68.215866135736249, 40.9524753870312 ], [ 68.215816725618893, 40.952506512152148 ], [ 68.215805682259614, 40.952514278684887 ], [ 68.215691415196943, 40.953738103784346 ], [ 68.215695558942954, 40.953919271378183 ], [ 68.215700153990028, 40.954062308564254 ], [ 68.215691327953252, 40.954276756057034 ], [ 68.215621348116301, 40.954876901933773 ], [ 68.215584834856131, 40.955305669414223 ], [ 68.2154596457152, 40.956320155667441 ], [ 68.215451269963097, 40.956496471764083 ], [ 68.215444754181007, 40.956595643393975 ] ] ] } },
{ "type": "Feature", "properties": { "field_id": 23, "Cad_number": "19325095489", "Culture": "Cotton", "Area_ha": 4.99, "type_irrag": "Canal irrigation" }, "geometry": { "type": "Polygon", "coordinates": [ [ [ 68.213789594434388, 40.955935614945311 ], [ 68.213859901469988, 40.955958836033311 ], [ 68.214033778585772, 40.956010073351493 ], [ 68.214193636855754, 40.956050489465063 ], [ 68.214381660785534, 40.956101822679486 ], [ 68.214527457929648, 40.956134992252316 ], [ 68.21460252360437, 40.956167679823544 ], [ 68.214738763027, 40.95621150941362 ], [ 68.214903422385348, 40.956244806981218 ], [ 68.215091870888187, 40.956260390615689 ], [ 68.215106398335848, 40.956228313335103 ], [ 68.215148795007977, 40.956232177089369 ], [ 68.215569345200905, 40.952413669368603 ], [ 68.215523028645109, 40.952397745241434 ], [ 68.215374944699505, 40.952346832221714 ], [ 68.215194457915629, 40.952296981975778 ], [ 68.215045920745624, 40.952261537183489 ], [ 68.214626560456097, 40.952150109567 ], [ 68.214295512046348, 40.95207206119035 ], [ 68.214257841712623, 40.952067514309455 ], [ 68.214181841329761, 40.95268952830358 ], [ 68.214157920706867, 40.952885300537872 ], [ 68.213925235826181, 40.95481232839952 ], [ 68.213789594434388, 40.955935614945311 ] ] ] } },
{ "type": "Feature", "properties": { "field_id": 24, "Cad_number": "19325095489", "Culture": "Cotton", "Area_ha": 5.76, "type_irrag": "Canal irrigation" }, "geometry": { "type": "Polygon", "coordinates": [ [ [ 68.212280844810252, 40.952563936181491 ], [ 68.212297893888717, 40.952611098556751 ], [ 68.21229398319403, 40.952678684035391 ], [ 68.212291516676075, 40.95272131085575 ], [ 68.21217816044819, 40.953614046206319 ], [ 68.212108602986703, 40.954176058466665 ], [ 68.211945088934002, 40.955402795454354 ], [ 68.211988826147021, 40.955446878944031 ], [ 68.212013476088316, 40.955488995629949 ], [ 68.212071431558087, 40.955479858037776 ], [ 68.212161717686953, 40.955501449137223 ], [ 68.212186707768012, 40.955514967058711 ], [ 68.212211743192398, 40.955524671811062 ], [ 68.212234399743295, 40.955522919883073 ], [ 68.21227946353082, 40.955540388414889 ], [ 68.212302120085482, 40.955538636473655 ], [ 68.212342086158628, 40.955561790362808 ], [ 68.212397436127262, 40.955560261753696 ], [ 68.212487654499469, 40.955587572345486 ], [ 68.212547852989047, 40.955601330676352 ], [ 68.212705905292367, 40.955634824595919 ], [ 68.212788466001143, 40.955671616344418 ], [ 68.212846013858439, 40.955696796841885 ], [ 68.212938724844406, 40.955726030835791 ], [ 68.21312430554832, 40.955771152526133 ], [ 68.213257232322377, 40.955802567468112 ], [ 68.213329915073359, 40.955824037528423 ], [ 68.213387599070131, 40.955837778264041 ], [ 68.213468143401357, 40.955832607560097 ], [ 68.213478451889571, 40.95581170378037 ], [ 68.213491048958389, 40.955809882979743 ], [ 68.2140054285004, 40.951985901492243 ], [ 68.213657103116631, 40.95188037180948 ], [ 68.213469074722326, 40.951830467427769 ], [ 68.213306058169621, 40.951792173834747 ], [ 68.213078972699776, 40.951748675894478 ], [ 68.21293198533894, 40.951737185508655 ], [ 68.212845159122239, 40.95174231296447 ], [ 68.212722592116648, 40.951792195325865 ], [ 68.212447036000938, 40.951912344622379 ], [ 68.21238613098231, 40.951946330873106 ], [ 68.212345766640738, 40.951968854967014 ], [ 68.21232859970587, 40.952065849834867 ], [ 68.212280844810252, 40.952563936181491 ] ] ] } }
]
}
